     3.04           N: GNSS NAV DATA    M: MIXED            RINEX VERSION / TYPE
ssrcrin-15.6.1x                         20250101 130000 UTC PGM / RUN BY / DATE 
    18                                                      LEAP SECONDS        
                                                            END OF HEADER       
E36 2025 01 01 12 50 00-3.330006729811E-04-5.314859663486E-12 0.000000000000E+00
     1.000000000000E+00 1.637812500000E+02 2.543320225210E-09 1.670976975881E+00
     7.743015885353E-06 3.700267989188E-04 1.173466444016E-07 5.440607461929E+03
     3.054000000000E+05-2.607703208923E-08-1.775874299607E+00 4.470348358154E-08
     9.996842941206E-01 3.563437500000E+02-1.008167583438E+00-5.595233063916E-09
     3.003696544589E-10 5.170000000000E+02 2.347000000000E+03
     3.120000000000E+00 0.000000000000E+00 2.095475792885E-09 3.725290298462E-09
     3.060650000000E+05
E27 2025 01 01 12 50 00-5.448729498312E-04-9.919176591211E-12 0.000000000000E+00
     1.000000000000E+00-1.753125000000E+01 3.506217476603E-09-1.578902759638E-01
    -7.562339305878E-07 3.204070962965E-04 6.109476089478E-06 5.440601516724E+03
     3.054000000000E+05 3.539025783539E-08 2.413586224971E+00-2.048909664154E-08
     9.642097244396E-01 2.068437500000E+02 5.521277667034E-01-5.540587930584E-09
    -6.589560195918E-10 5.170000000000E+02 2.347000000000E+03
     3.120000000000E+00 0.000000000000E+00-4.656612873077E-10 4.656612873077E-10
     3.060650000000E+05
E34 2025 01 01 12 40 00-1.550973393023E-04-2.202682480856E-12 0.000000000000E+00
     0.000000000000E+00 1.747500000000E+02 2.539391490134E-09 1.953537170059E+00
     8.223578333855E-06 1.900815404952E-04 1.452863216400E-07 5.440607723236E+03
     3.048000000000E+05 9.685754776001E-08-1.777736159835E+00-3.725290298462E-09
     9.995094139676E-01 3.557500000000E+02-2.149304697728E+00-5.656307036463E-09
     3.789443559820E-10 2.580000000000E+02 2.347000000000E+03
     3.120000000000E+00 0.000000000000E+00 6.984919309616E-10 0.000000000000E+00
     3.060700000000E+05
S23 2025 01 01 13 01 04 0.000000000000E+00 0.000000000000E+00 3.060700000000E+05
     3.866796400000E+04 0.000000000000E+00 0.000000000000E+00 6.300000000000E+01
     1.681330800000E+04 0.000000000000E+00 0.000000000000E+00 3.276700000000E+04
     0.000000000000E+00 0.000000000000E+00 0.000000000000E+00 1.030000000000E+02
R23 2025 01 01 13 15 00-1.428741961718E-04-9.094947017729E-13 3.060600000000E+05
     1.016711816406E+04-1.933432579041E+00-9.313225746155E-10 0.000000000000E+00
     1.566518164062E+04-1.400316238403E+00-1.862645149231E-09 3.000000000000E+00
     1.737158349609E+04 2.394601821899E+00-1.862645149231E-09 0.000000000000E+00
E34 2025 01 01 12 50 00-1.550968736410E-04-2.216893335572E-12 0.000000000000E+00
     1.000000000000E+00 1.727500000000E+02 2.539748647868E-09 2.028623513432E+00
     8.128583431244E-06 1.903360243887E-04 2.030283212662E-07 5.440607154846E+03
     3.054000000000E+05 9.685754776001E-08-1.777739564046E+00 1.490116119385E-08
     9.995097182546E-01 3.545000000000E+02-2.150006023581E+00-5.645592304437E-09
     3.739441477033E-10 5.170000000000E+02 2.347000000000E+03
     3.120000000000E+00 0.000000000000E+00 6.984919309616E-10 2.561137080193E-09
     3.061140000000E+05
E07 2025 01 01 12 50 00-1.612793421373E-04-2.060573933704E-12 0.000000000000E+00
     1.000000000000E+00-1.800625000000E+02 2.792616323679E-09 2.799970404269E+00
    -8.190050721169E-06 1.249838387594E-04 1.253187656403E-05 5.440621347427E+03
     3.054000000000E+05-1.117587089539E-08 3.132810291152E-01 2.607703208923E-08
     9.636280170091E-01 7.271875000000E+01-2.974031307084E-01-5.220574600744E-09
     3.432285825624E-10 2.580000000000E+02 2.347000000000E+03
     3.120000000000E+00 0.000000000000E+00 3.026798367500E-09 0.000000000000E+00
     3.061400000000E+05
E27 2025 01 01 12 50 00-5.448739975691E-04-9.919176591211E-12 0.000000000000E+00
     1.000000000000E+00-1.753125000000E+01 3.506217476603E-09-1.578902759638E-01
    -7.562339305878E-07 3.204070962965E-04 6.109476089478E-06 5.440601516724E+03
     3.054000000000E+05 3.539025783539E-08 2.413586224971E+00-2.048909664154E-08
     9.642097244396E-01 2.068437500000E+02 5.521277667034E-01-5.540587930584E-09
    -6.589560195918E-10 2.580000000000E+02 2.347000000000E+03
     3.120000000000E+00 0.000000000000E+00-4.656612873077E-10 0.000000000000E+00
     3.061400000000E+05
S21 2025 01 01 13 02 40 0.000000000000E+00 0.000000000000E+00 3.061740000000E+05
     4.200468400000E+04 0.000000000000E+00 0.000000000000E+00 6.300000000000E+01
    -3.674932960000E+03 0.000000000000E+00 0.000000000000E+00 3.276700000000E+04
     0.000000000000E+00 0.000000000000E+00 0.000000000000E+00 1.350000000000E+02
S36 2025 01 01 13 02 56 0.000000000000E+00 0.000000000000E+00 3.061900000000E+05
     4.200368800000E+04 0.000000000000E+00 0.000000000000E+00 6.300000000000E+01
     3.674846960000E+03 0.000000000000E+00 0.000000000000E+00 3.276700000000E+04
     0.000000000000E+00 0.000000000000E+00 0.000000000000E+00 2.030000000000E+02
S23 2025 01 01 13 03 12 0.000000000000E+00 0.000000000000E+00 3.061930000000E+05
     3.866796400000E+04 0.000000000000E+00 0.000000000000E+00 6.300000000000E+01
     1.681330800000E+04 0.000000000000E+00 0.000000000000E+00 3.276700000000E+04
     0.000000000000E+00 0.000000000000E+00 0.000000000000E+00 1.040000000000E+02
E36 2025 01 01 12 50 00-3.330024192110E-04-5.314859663486E-12 0.000000000000E+00
     1.000000000000E+00 1.637812500000E+02 2.543320225210E-09 1.670976975881E+00
     7.743015885353E-06 3.700267989188E-04 1.173466444016E-07 5.440607461929E+03
     3.054000000000E+05-2.607703208923E-08-1.775874299607E+00 4.470348358154E-08
     9.996842941206E-01 3.563437500000E+02-1.008167583438E+00-5.595233063916E-09
     3.003696544589E-10 2.580000000000E+02 2.347000000000E+03
     3.120000000000E+00 0.000000000000E+00 2.095475792885E-09 0.000000000000E+00
     3.062400000000E+05
R03 2025 01 01 13 15 00 1.142583787441E-04 0.000000000000E+00 3.062400000000E+05
     2.281752001953E+04-6.945781707764E-01 4.656612873077E-09 0.000000000000E+00
    -1.013065234375E+04 1.838779449463E-01 9.313225746155E-10 5.000000000000E+00
    -5.017441894531E+03-3.502101898193E+00-2.793967723846E-09 0.000000000000E+00
E34 2025 01 01 12 50 00-1.550987362862E-04-2.202682480856E-12 0.000000000000E+00
     1.000000000000E+00 1.727500000000E+02 2.539748647868E-09 2.028623513432E+00
     8.128583431244E-06 1.903360243887E-04 2.030283212662E-07 5.440607154846E+03
     3.054000000000E+05 9.685754776001E-08-1.777739564046E+00 1.490116119385E-08
     9.995097182546E-01 3.545000000000E+02-2.150006023581E+00-5.645592304437E-09
     3.739441477033E-10 2.580000000000E+02 2.347000000000E+03
     3.120000000000E+00 0.000000000000E+00 6.984919309616E-10 0.000000000000E+00
     3.062700000000E+05
S23 2025 01 01 13 05 20 0.000000000000E+00 0.000000000000E+00 3.063220000000E+05
     3.866796400000E+04 0.000000000000E+00 0.000000000000E+00 6.300000000000E+01
     1.681330800000E+04 0.000000000000E+00 0.000000000000E+00 3.276700000000E+04
     0.000000000000E+00 0.000000000000E+00 0.000000000000E+00 1.050000000000E+02
R15 2025 01 01 13 15 00 7.260497659445E-05-0.000000000000E+00 3.063000000000E+05
     5.965605468750E+03-1.338348388672E-01-0.000000000000E+00 0.000000000000E+00
    -2.166638574219E+04 1.651347160339E+00 1.862645149231E-09 0.000000000000E+00
     1.208502929688E+04 3.028673171997E+00-1.862645149231E-09 0.000000000000E+00
S21 2025 01 01 13 05 36 0.000000000000E+00 0.000000000000E+00 3.063430000000E+05
     4.200468400000E+04 0.000000000000E+00 0.000000000000E+00 6.300000000000E+01
    -3.674932960000E+03 0.000000000000E+00 0.000000000000E+00 3.276700000000E+04
     0.000000000000E+00 0.000000000000E+00 0.000000000000E+00 1.360000000000E+02
S36 2025 01 01 13 05 36 0.000000000000E+00 0.000000000000E+00 3.063460000000E+05
     4.200368800000E+04 0.000000000000E+00 0.000000000000E+00 6.300000000000E+01
     3.674846960000E+03 0.000000000000E+00 0.000000000000E+00 3.276700000000E+04
     0.000000000000E+00 0.000000000000E+00 0.000000000000E+00 2.040000000000E+02
S23 2025 01 01 13 07 28 0.000000000000E+00 0.000000000000E+00 3.064500000000E+05
     3.866796400000E+04 0.000000000000E+00 0.000000000000E+00 6.300000000000E+01
     1.681330800000E+04 0.000000000000E+00 0.000000000000E+00 3.276700000000E+04
     0.000000000000E+00 0.000000000000E+00 0.000000000000E+00 1.060000000000E+02
S21 2025 01 01 13 08 16 0.000000000000E+00 0.000000000000E+00 3.065060000000E+05
     4.200468400000E+04 0.000000000000E+00 0.000000000000E+00 6.300000000000E+01
    -3.674932960000E+03 0.000000000000E+00 0.000000000000E+00 3.276700000000E+04
     0.000000000000E+00 0.000000000000E+00 0.000000000000E+00 1.370000000000E+02
S36 2025 01 01 13 08 16 0.000000000000E+00 0.000000000000E+00 3.065060000000E+05
     4.200368800000E+04 0.000000000000E+00 0.000000000000E+00 6.300000000000E+01
     3.674846960000E+03 0.000000000000E+00 0.000000000000E+00 3.276700000000E+04
     0.000000000000E+00 0.000000000000E+00 0.000000000000E+00 2.050000000000E+02
S23 2025 01 01 13 09 36 0.000000000000E+00 0.000000000000E+00 3.065770000000E+05
     3.866796400000E+04 0.000000000000E+00 0.000000000000E+00 6.300000000000E+01
     1.681330800000E+04 0.000000000000E+00 0.000000000000E+00 3.276700000000E+04
     0.000000000000E+00 0.000000000000E+00 0.000000000000E+00 1.070000000000E+02
